[{"OBJECT_NAME":"STARLINK-30469","OBJECT_ID":"2023-146F","EPOCH":"2026-03-09T22:00:01.999584","MEAN_MOTION":15.08741624,"ECCENTRICITY":0.00012153,"INCLINATION":42.9999,"RA_OF_ASC_NODE":312.1219,"ARG_OF_PERICENTER":254.0494,"MEAN_ANOMALY":345.6756,"EPHEMERIS_TYPE":0,"CLASSIFICATION_TYPE":"U","NORAD_CAT_ID":57896,"ELEMENT_SET_NO":999,"REV_AT_EPOCH":578,"BSTAR":0.099451711,"MEAN_MOTION_DOT":0.01743611,"MEAN_MOTION_DDOT":0},{"OBJECT_NAME":"FENGYUN 1C DEB","OBJECT_ID":"1999-025BDP","EPOCH":"2026-03-09T13:06:28.874592","MEAN_MOTION":14.76824991,"ECCENTRICITY":0.02629979,"INCLINATION":98.3487,"RA_OF_ASC_NODE":187.0157,"ARG_OF_PERICENTER":325.1899,"MEAN_ANOMALY":33.2345,"EPHEMERIS_TYPE":0,"CLASSIFICATION_TYPE":"U","NORAD_CAT_ID":31021,"ELEMENT_SET_NO":999,"REV_AT_EPOCH":74713,"BSTAR":0.00051474289,"MEAN_MOTION_DOT":6.356e-5,"MEAN_MOTION_DDOT":0}]
